1 45668U 20035M   22365.14622710  .00006805  00000-0  47521-3 0  9991
2 45668  53.0526 254.4666 0001450  63.1989 296.9148 15.06408734142803
1 45668U 20035M   22365.41160791  .00007980  00000-0  55368-3 0  9990
2 45668  53.0529 253.2763 0001549  63.0841 297.0306 15.06421288143253
1 45668U 20035M   23001.07507674 -.00000058  00000-0  14989-4 0  9990
2 45668  53.0517 250.2974 0001417  62.2729 297.8403 15.06410114142948
1 45668U 20035M   23001.40681253 -.00001492  00000-0 -81253-4 0  9995
2 45668  53.0524 248.8077 0001606  66.2813 293.8344 15.06398541143402
1 45668U 20035M   23001.40681253 -.00001492  00000-0 -81253-4 0  9995
2 45668  53.0524 248.8077 0001606  66.2813 293.8344 15.06398541142995
1 45668U 20035M   23001.93759863  .00003774  00000-0  27224-3 0  9996
2 45668  53.0526 246.4252 0001471  66.6215 293.4929 15.06379145143485
1 45668U 20035M   23001.93759863  .00003774  00000-0  27224-3 0  9996
2 45668  53.0526 246.4252 0001471  66.6215 293.4929 15.06379145143070
1 45668U 20035M   23002.46838117  .00013655  00000-0  93415-3 0  9999
2 45668  53.0520 244.0427 0001523  67.9519 292.1632 15.06386584143567
1 45668U 20035M   23002.93281123  .00012185  00000-0  83559-3 0  9995
2 45668  53.0521 241.9577 0001591  67.9786 292.1372 15.06395805143636
1 45668U 20035M   23003.06550472  .00012222  00000-0  83799-3 0  9994
2 45668  53.0521 241.3621 0001596  67.7589 292.3569 15.06399518143651
1 45668U 20035M   23003.06550472  .00012222  00000-0  83799-3 0  9994
2 45668  53.0521 241.3621 0001596  67.7589 292.3569 15.06399518143246
1 45668U 20035M   23003.86166461  .00007958  00000-0  55245-3 0  9998
2 45668  53.0520 237.7878 0001603  68.5312 291.5848 15.06408058143364
1 45668U 20035M   23004.32609203  .00004366  00000-0  31181-3 0  9999
2 45668  53.0520 235.7032 0001600  68.0253 292.0906 15.06404253143847
1 45668U 20035M   23004.32609203  .00004366  00000-0  31181-3 0  9999
2 45668  53.0520 235.7032 0001600  68.0253 292.0906 15.06404253143432
1 45668U 20035M   23004.92320597  .00008416  00000-0  58291-3 0  9992
2 45668  53.0517 233.0224 0001578  69.5408 290.5750 15.06419339143930
1 45668U 20035M   23005.58666798  .00003124  00000-0  22842-3 0  9995
2 45668  53.0525 230.0441 0001599  69.7997 290.3164 15.06414990143626
1 45668U 20035M   23006.31648765 -.00004582  00000-0 -28896-3 0  9997
2 45668  53.0510 226.7670 0001575  70.8359 289.2800 15.06390975144143
1 45668U 20035M   23006.31648765 -.00004582  00000-0 -28896-3 0  9997
2 45668  53.0510 226.7670 0001575  70.8359 289.2800 15.06390975143737
1 45668U 20035M   23006.97995835 -.00002823  00000-0 -17072-3 0  9992
2 45668  53.0517 223.7870 0001629  69.7358 290.3806 15.06394352144248
1 45668U 20035M   23007.31169185 -.00000919  00000-0 -42826-4 0  9992
2 45668  53.0519 222.2979 0001614  71.1184 288.9980 15.06397665143887
1 45668U 20035M   23007.84247352  .00000543  00000-0  55356-4 0  9996
2 45668  53.0513 219.9150 0001500  71.6648 288.4504 15.06389530144373
1 45668U 20035M   23007.84247352  .00000543  00000-0  55356-4 0  9996
2 45668  53.0513 219.9150 0001500  71.6648 288.4504 15.06389530143967
1 45668U 20035M   23008.30690892  .00000195  00000-0  31978-4 0  9996
2 45668  53.0520 217.8310 0001386  75.5336 284.5807 15.06382649144035
1 45668U 20035M   23008.57230011  .00001051  00000-0  89485-4 0  9996
2 45668  53.0537 216.6390 0001350  72.1768 287.9368 15.06381946144488
1 45668U 20035M   23008.83768557  .00001565  00000-0  12396-3 0  9992
2 45668  53.0527 215.4483 0001374  72.4549 287.6590 15.06387184144522
1 45668U 20035M   23008.97037669 -.00000835  00000-0 -37180-4 0  9990
2 45668  53.0530 214.8521 0001380  70.5981 289.5157 15.06398939144135
1 45668U 20035M   23009.30211305  .00001300  00000-0  10616-3 0  9999
2 45668  53.0531 213.3634 0001418  72.0882 288.0261 15.06392808144593
1 45668U 20035M   23009.56750097  .00001707  00000-0  13351-3 0  9993
2 45668  53.0534 212.1718 0001394  72.5618 287.5524 15.06392975144637
1 45668U 20035M   23010.56270276  .00002265  00000-0  17091-3 0  9996
2 45668  53.0522 207.7042 0001462  73.1304 286.9845 15.06398878144377
1 45668U 20035M   23010.82808975  .00002700  00000-0  20007-3 0  9993
2 45668  53.0508 206.5129 0001484  71.6414 288.4736 15.06402464144826
1 45668U 20035M   23011.55790475  .00000261  00000-0  36439-4 0  9996
2 45668  53.0504 203.2368 0001521  72.8849 287.2306 15.06400250144931
1 45668U 20035M   23011.82329102  .00000319  00000-0  40337-4 0  9997
2 45668  53.0505 202.0453 0001529  73.1543 286.9614 15.06401018144972
1 45668U 20035M   23011.82329102  .00000319  00000-0  40337-4 0  9997
2 45668  53.0505 202.0453 0001529  73.1543 286.9614 15.06401018144567
1 45668U 20035M   23012.28772289  .00000165  00000-0  29980-4 0  9996
2 45668  53.0514 199.9601 0001540  73.7040 286.4118 15.06398270144634
1 45668U 20035M   23012.88484587 -.00000069  00000-0  14290-4 0  9995
2 45668  53.0514 197.2793 0001553  74.0987 286.0173 15.06397543145130
1 45668U 20035M   23013.21657450 -.00001239  00000-0 -64275-4 0  9993
2 45668  53.0516 195.7900 0001546  79.7081 280.4082 15.06407523145186
1 45668U 20035M   23013.74734738  .00001662  00000-0  13046-3 0  9993
2 45668  53.0518 193.4071 0001458  79.9584 280.1570 15.06403474145263
1 45668U 20035M   23013.74734738  .00001662  00000-0  13046-3 0  9993
2 45668  53.0518 193.4071 0001458  79.9584 280.1570 15.06403474144857
1 45668U 20035M   23014.21180014  .00016218  00000-0  11069-2 0  9993
2 45668  53.0521 191.3225 0001697  70.0423 290.0749 15.06340288144927
1 45668U 20035M   23014.47716686  .00001257  00000-0  10329-3 0  9997
2 45668  53.0521 190.1312 0001401  81.1224 278.9924 15.06397024144960
1 45668U 20035M   23015.60506469 -.00000011  00000-0  18136-4 0  9992
2 45668  53.0513 185.0681 0001482  79.9536 280.1620 15.06397511145547
1 45668U 20035M   23015.73775597  .00000333  00000-0  41229-4 0  9991
2 45668  53.0520 184.4719 0001328  85.4993 274.6148 15.06399607145561
1 45668U 20035M   23015.73775597  .00000333  00000-0  41229-4 0  9991
2 45668  53.0520 184.4719 0001328  85.4993 274.6148 15.06399607145156
1 45668U 20035M   23016.60027386 -.00000748  00000-0 -31325-4 0  9992
2 45668  53.0523 180.5995 0001437  85.3781 274.7372 15.06390077145698
1 45668U 20035M   23016.86566533 -.00001193  00000-0 -61222-4 0  9996
2 45668  53.0525 179.4076 0001307  87.4971 272.6167 15.06386638145739
1 45668U 20035M   23016.86566533 -.00001193  00000-0 -61222-4 0  9996
2 45668  53.0525 179.4076 0001307  87.4971 272.6167 15.06386638145324
1 45668U 20035M   23017.72816139  .00002007  00000-0  15359-3 0  9994
2 45668  53.0530 175.5357 0001196  86.5246 273.5880 15.06401645145867
1 45668U 20035M   23017.72816139  .00002007  00000-0  15359-3 0  9994
2 45668  53.0530 175.5357 0001196  86.5246 273.5880 15.06401645145452
1 45668U 20035M   23018.59067823  .00001823  00000-0  14125-3 0  9993
2 45668  53.0515 171.6663 0001323  76.8815 283.2322 15.06393338145995
1 45668U 20035M   23018.59067823  .00001823  00000-0  14125-3 0  9993
2 45668  53.0515 171.6663 0001323  76.8815 283.2322 15.06393338145580
1 45668U 20035M   23018.72336908  .00001710  00000-0  13367-3 0  9993
2 45668  53.0525 171.0709 0001278  79.6769 280.4364 15.06394202146019
1 45668U 20035M   23019.51954235 -.00002262  00000-0 -13303-3 0  9995
2 45668  53.0529 167.4949 0001235  72.7936 287.3188 15.06396608146136
1 45668U 20035M   23019.78492439 -.00000094  00000-0  12544-4 0  9994
2 45668  53.0524 166.3043 0001060  81.9200 278.1909 15.06395618145763
1 45668U 20035M   23020.11665448  .00000859  00000-0  76556-4 0  9996
2 45668  53.0524 164.8151 0001171  83.6765 276.4357 15.06399144146222
1 45668U 20035M   23020.64742368  .00000724  00000-0  67442-4 0  9996
2 45668  53.0529 162.4317 0001128  83.9581 276.1536 15.06407099145893
1 45668U 20035M   23021.37724672  .00001100  00000-0  92749-4 0  9992
2 45668  53.0547 159.1534 0001357  92.2660 267.8484 15.06391339146004
1 45668U 20035M   23022.10705839  .00000665  00000-0  63525-4 0  9993
2 45668  53.0523 155.8799 0001269  82.5492 277.5641 15.06400562146115
1 45668U 20035M   23023.50034757  .00000891  00000-0  78746-4 0  9994
2 45668  53.0533 149.6218 0001444  96.6726 263.4427 15.06392700146327
1 45668U 20035M   23024.49555756  .00000572  00000-0  57307-4 0  9996
2 45668  53.0534 145.1545 0001266 100.7849 259.3283 15.06386944146470
1 45668U 20035M   23025.49075412  .00001101  00000-0  92802-4 0  9991
2 45668  53.0534 140.6871 0001265  85.6505 274.4629 15.06398555146621
1 45668U 20035M   23025.55709921  .00001399  00000-0  11282-3 0  9998
2 45668  53.0531 140.3893 0001317  86.3029 273.8110 15.06400642147042
1 45668U 20035M   23025.62344513  .00000640  00000-0  61879-4 0  9994
2 45668  53.0549 140.0923 0001604  51.5608 308.5525 15.06406146147050
1 45668U 20035M   23026.55230764  .00001114  00000-0  93681-4 0  9992
2 45668  53.0547 135.9237 0001521  93.7539 266.3624 15.06394001147190
1 45668U 20035M   23026.61865192  .00001385  00000-0  11185-3 0  9996
2 45668  53.0547 135.6256 0001482  93.6301 266.4858 15.06396530146794
1 45668U 20035M   23027.54750702 -.00001023  00000-0 -49757-4 0  9997
2 45668  53.0536 131.4564 0001423  95.0925 265.0226 15.06402860147341
1 45668U 20035M   23027.61384950 -.00000522  00000-0 -16165-4 0  9993
2 45668  53.0537 131.1569 0001399  99.4051 260.7096 15.06406873147350
1 45668U 20035M   23028.01193395 -.00001759  00000-0 -99200-4 0  9993
2 45668  53.0530 129.3705 0001643  79.4493 280.6681 15.06404666147005
1 45668U 20035M   23028.54270907 -.00000702  00000-0 -28220-4 0  9997
2 45668  53.0538 126.9857 0001387 100.2091 259.9055 15.06399355147491
1 45668U 20035M   23028.67539975 -.00000400  00000-0 -79623-5 0  9993
2 45668  53.0536 126.3894 0001382 106.3768 253.7373 15.06402013147511
1 45668U 20035M   23029.47156532 -.00005479  00000-0 -34901-3 0  9995
2 45668  53.0542 122.8127 0001980  98.8241 261.2972 15.06414470147220
1 45668U 20035M   23029.67061098 -.00001394  00000-0 -74715-4 0  9999
2 45668  53.0545 121.9198 0001594 116.5166 243.5987 15.06394698147257
1 45668U 20035M   23029.93599864 -.00000963  00000-0 -45771-4 0  9996
2 45668  53.0547 120.7308 0001418  93.3711 266.7440 15.06394928147709
1 45668U 20035M   23030.46677241  .00000520  00000-0  53782-4 0  9990
2 45668  53.0535 118.3495 0001255 102.1282 257.9847 15.06393388147787
1 45668U 20035M   23030.93120116  .00000004  00000-0  19191-4 0  9999
2 45668  53.0536 116.2656 0001332 120.9320 239.1800 15.06394596147447
1 45668U 20035M   23031.52832417 -.00000214  00000-0  45381-5 0  9994
2 45668  53.0537 113.5848 0001122  94.1280 265.9838 15.06397752147945
1 45668U 20035M   23031.92640399  .00000052  00000-0  22368-4 0  9992
2 45668  53.0541 111.7964 0001209  97.2213 262.8914 15.06398211148005
